2023-098C = NORAD 57770 = Chandrayaan-3 PM
1 57770U 23098C   23313.49919926  .00000000  00000-0  00000-0 0 21678
2 57770 022.5454 009.3327 2361645 294.4357 257.3167 00.04785886    02

# Worst residual: 400.08 km
# MJD 60258.000000 (2023 Nov 10  0:00)
2023-098C = NORAD 57770 = Chandrayaan-3 PM
1 57770U 23098C   23314.49919926  .00000000  00000-0  00000-0 0 21679
2 57770 023.7741 009.0817 1285825 282.0138 276.6877 00.04467151    03

# Worst residual: 337.25 km
# MJD 60259.000000 (2023 Nov 11  0:00)
2023-098C = NORAD 57770 = Chandrayaan-3 PM
1 57770U 23098C   23315.49919926  .00000000  00000-0  00000-0 0 21670
2 57770 024.9420 009.6342 0565928 287.2482 279.8347 00.04621775    03

# Worst residual: 289.25 km
# MJD 60260.000000 (2023 Nov 12  0:00)
2023-098C = NORAD 57770 = Chandrayaan-3 PM
1 57770U 23098C   23316.49919926  .00000000  00000-0  00000-0 0 21671
2 57770 025.8748 010.7458 0461091 021.2102 197.0064 00.05096988    08

# Worst residual: 248.09 km
# MJD 60261.000000 (2023 Nov 13  0:00)
2023-098C = NORAD 57770 = Chandrayaan-3 PM
1 57770U 23098C   23317.49919926  .00000000  00000-0  00000-0 0 21672
2 57770 026.4790 012.0025 1108119 051.6298 181.0910 00.05634169    02

# Worst residual: 207.25 km
# MJD 60262.000000 (2023 Nov 14  0:00)
2023-098C = NORAD 57770 = Chandrayaan-3 PM
1 57770U 23098C   23318.49919926  .00000000  00000-0  00000-0 0 21673
2 57770 026.8051 013.1325 1727814 061.2726 189.0403 00.06132166    09

# Worst residual: 163.66 km
# MJD 60263.000000 (2023 Nov 15  0:00)
2023-098C = NORAD 57770 = Chandrayaan-3 PM
1 57770U 23098C   23319.49919926  .00000000  00000-0  00000-0 0 21674
2 57770 026.9363 013.9837 2247207 067.9488 202.6631 00.06575622    07

# Worst residual: 112.81 km
# MJD 60264.000000 (2023 Nov 16  0:00)
2023-098C = NORAD 57770 = Chandrayaan-3 PM
1 57770U 23098C   23320.49919926  .00000000  00000-0  00000-0 0 21676
2 57770 026.9597 014.4846 2645913 073.6647 219.6188 00.06956702    06

# Worst residual: 72.63 km
# MJD 60265.000000 (2023 Nov 17  0:00)
2023-098C = NORAD 57770 = Chandrayaan-3 PM
1 57770U 23098C   23321.49919926  .00000000  00000-0  00000-0 0 21677
2 57770 026.9542 014.6737 2911664 078.5234 239.4465 00.07262703    02

# Worst residual: 51.27 km
# MJD 60266.000000 (2023 Nov 18  0:00)
2023-098C = NORAD 57770 = Chandrayaan-3 PM
1 57770U 23098C   23322.49919926  .00000000  00000-0  00000-0 0 21678
2 57770 026.9619 014.6950 3053317 082.1697 262.0149 00.07482079    02

# Worst residual: 28.12 km
# MJD 60267.000000 (2023 Nov 19  0:00)
2023-098C = NORAD 57770 = Chandrayaan-3 PM
1 57770U 23098C   23323.49919926  .00000000  00000-0  00000-0 0 21679
2 57770 026.9796 014.6824 3107393 084.4226 286.9188 00.07614816    09

# Worst residual: 13.08 km
# MJD 60268.000000 (2023 Nov 20  0:00)
2023-098C = NORAD 57770 = Chandrayaan-3 PM
1 57770U 23098C   23324.49919926  .00000000  00000-0  00000-0 0 21670
2 57770 026.9927 014.6790 3117100 085.5342 313.3716 00.07680082    05

# Worst residual: 9.37 km
# MJD 60269.000000 (2023 Nov 21  0:00)
2023-098C = NORAD 57770 = Chandrayaan-3 PM
1 57770U 23098C   23325.49919926  .00000000  00000-0  00000-0 0 21671
2 57770 027.0006 014.6779 3105202 085.9848 340.5639 00.07718083    06

# Worst residual: 14.38 km
# MJD 60270.000000 (2023 Nov 22  0:00)
2023-098C = NORAD 57770 = Chandrayaan-3 PM
1 57770U 23098C   23326.49919926  .00000000  00000-0  00000-0 0 21672
2 57770 027.0079 014.6777 3081144 085.8692 008.3201 00.07757629    01

# Worst residual: 20.18 km
# MJD 60271.000000 (2023 Nov 23  0:00)
2023-098C = NORAD 57770 = Chandrayaan-3 PM
1 57770U 23098C   23327.49919926  .00000000  00000-0  00000-0 0 21673
2 57770 027.0136 014.6774 3084344 085.4853 036.3028 00.07767264    06

# Worst residual: 23.71 km
# MJD 60272.000000 (2023 Nov 24  0:00)
2023-098C = NORAD 57770 = Chandrayaan-3 PM
1 57770U 23098C   23328.49919926  .00000000  00000-0  00000-0 0 21674
2 57770 027.0189 014.6732 3117221 085.6014 063.6176 00.07738381    05

# Worst residual: 20.05 km
# MJD 60273.000000 (2023 Nov 25  0:00)
2023-098C = NORAD 57770 = Chandrayaan-3 PM
1 57770U 23098C   23329.49919926  .00000000  00000-0  00000-0 0 21675
2 57770 027.0264 014.6697 3152017 086.2096 090.1988 00.07697732    08

# Worst residual: 23.13 km
# MJD 60274.000000 (2023 Nov 26  0:00)
2023-098C = NORAD 57770 = Chandrayaan-3 PM
1 57770U 23098C   23330.49919926  .00000000  00000-0  00000-0 0 21677
2 57770 027.0299 014.6594 3178502 086.9457 116.4700 00.07667715    09

# Worst residual: 20.26 km
# MJD 60275.000000 (2023 Nov 27  0:00)
2023-098C = NORAD 57770 = Chandrayaan-3 PM
1 57770U 23098C   23331.49919926  .00000000  00000-0  00000-0 0 21678
2 57770 027.0352 014.6481 3196582 087.6330 142.7338 00.07652527    04

# Worst residual: 14.56 km
# MJD 60276.000000 (2023 Nov 28  0:00)
2023-098C = NORAD 57770 = Chandrayaan-3 PM
1 57770U 23098C   23332.49919926  .00000000  00000-0  00000-0 0 21679
2 57770 027.0416 014.6359 3209426 088.1813 169.2134 00.07651368    03

# Worst residual: 7.37 km
# MJD 60277.000000 (2023 Nov 29  0:00)
2023-098C = NORAD 57770 = Chandrayaan-3 PM
1 57770U 23098C   23333.49919926  .00000000  00000-0  00000-0 0 21670
2 57770 027.0489 014.6279 3218182 088.5631 196.0280 00.07657818    01

# Worst residual: 1.80 km
# MJD 60278.000000 (2023 Nov 30  0:00)
2023-098C = NORAD 57770 = Chandrayaan-3 PM
1 57770U 23098C   23334.49919926  .00000000  00000-0  00000-0 0 21671
2 57770 027.0561 014.6247 3223075 088.7457 223.2464 00.07663058    02

# Worst residual: 8.09 km
# MJD 60279.000000 (2023 Dec  1  0:00)
2023-098C = NORAD 57770 = Chandrayaan-3 PM
1 57770U 23098C   23335.49919926  .00000000  00000-0  00000-0 0 21672
2 57770 027.0613 014.6271 3226328 088.6704 250.8990 00.07657014    00

# Worst residual: 16.75 km
# MJD 60280.000000 (2023 Dec  2  0:00)
2023-098C = NORAD 57770 = Chandrayaan-3 PM
1 57770U 23098C   23336.49919926  .00000000  00000-0  00000-0 0 21673
2 57770 027.0649 014.6280 3236544 088.3258 278.9200 00.07629833    04

# Worst residual: 35.87 km
# MJD 60281.000000 (2023 Dec  3  0:00)
2023-098C = NORAD 57770 = Chandrayaan-3 PM
1 57770U 23098C   23337.49919926  .00000000  00000-0  00000-0 0 21674
2 57770 027.0674 014.6232 3269303 087.9208 306.9903 00.07574533    06

# Worst residual: 43.12 km
# MJD 60282.000000 (2023 Dec  4  0:00)
2023-098C = NORAD 57770 = Chandrayaan-3 PM
1 57770U 23098C   23338.49919926  .00000000  00000-0  00000-0 0 21675
2 57770 027.0749 014.6140 3330123 088.2592 334.2688 00.07511534    02

# Worst residual: 55.79 km
# MJD 60283.000000 (2023 Dec  5  0:00)
2023-098C = NORAD 57770 = Chandrayaan-3 PM
1 57770U 23098C   23339.49919926  .00000000  00000-0  00000-0 0 21766
2 57770 027.0882 014.6315 3355392 089.7616 000.4157 00.07509607    03

# Worst residual: 29.99 km
# MJD 60284.000000 (2023 Dec  6  0:00)
2023-098C = NORAD 57770 = Chandrayaan-3 PM
1 57770U 23098C   23340.49919926  .00000000  00000-0  00000-0 0 21768
2 57770 027.0977 014.6318 3322210 090.8882 026.9581 00.07550312    05

# Worst residual: 27.29 km
# MJD 60285.000000 (2023 Dec  7  0:00)
2023-098C = NORAD 57770 = Chandrayaan-3 PM
1 57770U 23098C   23341.49919926  .00000000  00000-0  00000-0 0 21769
2 57770 027.1424 014.6108 3315197 090.7377 054.2410 00.07575472    03

# Worst residual: 46.25 km
# MJD 60286.000000 (2023 Dec  8  0:00)
2023-098C = NORAD 57770 = Chandrayaan-3 PM
1 57770U 23098C   23342.49919926  .00000000  00000-0  00000-0 0 21760
2 57770 027.2293 014.6560 3354185 089.1751 082.5935 00.07663249    04

# Worst residual: 45.77 km
# MJD 60287.000000 (2023 Dec  9  0:00)
2023-098C = NORAD 57770 = Chandrayaan-3 PM
1 57770U 23098C   23343.49919926  .00000000  00000-0  00000-0 0 21761
2 57770 027.3062 014.7695 3433598 087.3779 111.6113 00.07784704    07

# Worst residual: 43.55 km
# MJD 60288.000000 (2023 Dec 10  0:00)
2023-098C = NORAD 57770 = Chandrayaan-3 PM
1 57770U 23098C   23344.49919926  .00000000  00000-0  00000-0 0 21762
2 57770 027.3550 014.8979 3533764 086.1189 140.7269 00.07900511    04

# Worst residual: 43.04 km
# MJD 60289.000000 (2023 Dec 11  0:00)
2023-098C = NORAD 57770 = Chandrayaan-3 PM
1 57770U 23098C   23345.49919926  .00000000  00000-0  00000-0 0 21763
2 57770 027.3824 015.0266 3644519 085.4296 169.8615 00.08008408    04

# Worst residual: 46.03 km
# MJD 60290.000000 (2023 Dec 12  0:00)
2023-098C = NORAD 57770 = Chandrayaan-3 PM
1 57770U 23098C   23346.49919926  .00000000  00000-0  00000-0 0 21764
2 57770 027.3919 015.1116 3760575 085.2823 199.0512 00.08111123    09

# Worst residual: 45.00 km
# MJD 60291.000000 (2023 Dec 13  0:00)
2023-098C = NORAD 57770 = Chandrayaan-3 PM
1 57770U 23098C   23347.49919926  .00000000  00000-0  00000-0 0 21765
2 57770 027.3941 015.1740 3873166 085.6146 228.2900 00.08206963    03

# Worst residual: 40.28 km
# MJD 60292.000000 (2023 Dec 14  0:00)
2023-098C = NORAD 57770 = Chandrayaan-3 PM
1 57770U 23098C   23348.49919926  .00000000  00000-0  00000-0 0 21766
2 57770 027.3946 015.1999 3964172 086.2212 257.7258 00.08280785    00

# Worst residual: 40.35 km
# MJD 60293.000000 (2023 Dec 15  0:00)
2023-098C = NORAD 57770 = Chandrayaan-3 PM
1 57770U 23098C   23349.49919926  .00000000  00000-0  00000-0 0 21891
2 57770 027.4041 015.2010 4029393 086.7209 287.6105 00.08308398    05

# Worst residual: 57.12 km
# MJD 60294.000000 (2023 Dec 16  0:00)
2023-098C = NORAD 57770 = Chandrayaan-3 PM
1 57770U 23098C   23350.49919926  .00000000  00000-0  00000-0 0 21893
2 57770 027.4091 015.1883 4089508 086.7631 318.0063 00.08245258    07

# Worst residual: 83.58 km
# MJD 60295.000000 (2023 Dec 17  0:00)
2023-098C = NORAD 57770 = Chandrayaan-3 PM
1 57770U 23098C   23351.49919926  .00000000  00000-0  00000-0 0 21894
2 57770 027.4230 015.1659 4184168 087.3095 347.6415 00.08093572    01

# Worst residual: 78.05 km
# MJD 60296.000000 (2023 Dec 18  0:00)
2023-098C = NORAD 57770 = Chandrayaan-3 PM
1 57770U 23098C   23352.49919926  .00000000  00000-0  00000-0 0 21895
2 57770 027.4339 015.2051 4175147 088.9335 015.9784 00.08120776    00
